NORAD_CAT_ID,OBJECT_NAME,OBJECT_TYPE,EPOCH,MEAN_MOTION,ECCENTRICITY,INCLINATION,RA_OF_ASC_NODE,ARG_OF_PERICENTER,MEAN_ANOMALY,BSTAR,MEAN_MOTION_DOT,MEAN_MOTION_DDOT,TLE_LINE0,TLE_LINE1,TLE_LINE2,SEMIMAJOR_AXIS,PERIOD,APOGEE,PERIGEE,DECAYED
55410.0,STARLINK-5633,PAYLOAD,2024-02-10 13:05:44,14.98325401,0.0002618,70.0008,195.8411,252.8955,107.1918,4.2412e-05,4.13e-06,0.0,0 STARLINK-5633,1 55410U 23014V   24041.54565580  .00000413  00000-0  42412-4 0  9999,2 55410  70.0008 195.8411 0002618 252.8955 107.1918 14.98325401 58001,6950.207,96.107,573.892,570.253,0.0
55410.0,STARLINK-5633,PAYLOAD,2024-02-10 19:30:17,14.98322054,0.0002677,70.0018,195.1682,249.7903,110.2969,1.9782e-05,1.43e-06,0.0,0 STARLINK-5633,1 55410U 23014V   24041.81269945  .00000143  00000-0  19782-4 0  9999,2 55410  70.0018 195.1682 0002677 249.7903 110.2969 14.98322054 58044,6950.217,96.108,573.943,570.222,0.0
55410.0,STARLINK-5633,PAYLOAD,2024-02-11 11:31:37,14.9833594,0.0003094,70.0003,193.4842,268.9247,91.1558,-2.6466e-05,-4.09e-06,0.0,0 STARLINK-5633,1 55410U 23014V   24042.48029184 -.00000409  00000-0 -26466-4 0  9996,2 55410  70.0003 193.4842 0003094 268.9247  91.1558 14.98335940 58145,6950.175,96.107,574.19,569.889,0.0
55410.0,STARLINK-5633,PAYLOAD,2024-02-11 14:43:53,14.9833697,0.0003054,70.0006,193.1483,266.1113,93.9697,-2.3762e-05,-3.77e-06,0.0,0 STARLINK-5633,1 55410U 23014V   24042.61381060 -.00000377  00000-0 -23762-4 0  9995,2 55410  70.0006 193.1483 0003054 266.1113  93.9697 14.98336970 58164,6950.171,96.107,574.159,569.914,0.0
55410.0,STARLINK-5633,PAYLOAD,2024-02-11 19:32:16,14.98339975,0.0002784,70.0013,192.6432,257.5084,102.5764,4.6589e-05,4.63e-06,0.0,0 STARLINK-5633,1 55410U 23014V   24042.81408547  .00000463  00000-0  46589-4 0  9993,2 55410  70.0013 192.6432 0002784 257.5084 102.5764 14.98339975 58193,6950.162,96.106,573.962,570.092,0.0
55410.0,STARLINK-5633,PAYLOAD,2024-02-12 11:33:38,14.98327082,0.0002813,70.0018,190.9623,260.0765,100.0077,4.5796e-05,4.53e-06,0.0,0 STARLINK-5633,1 55410U 23014V   24043.48169267  .00000453  00000-0  45796-4 0  9998,2 55410  70.0018 190.9623 0002813 260.0765 100.0077 14.98327082 58296,6950.202,96.107,574.022,570.112,0.0
55410.0,STARLINK-5633,PAYLOAD,2024-02-12 14:45:54,14.98326663,0.0002831,70.0017,190.6255,260.2424,99.8415,3.7581e-05,3.55e-06,0.0,0 STARLINK-5633,1 55410U 23014V   24043.61521336  .00000355  00000-0  37581-4 0  9996,2 55410  70.0017 190.6255 0002831 260.2424  99.8415 14.98326663 58315,6950.203,96.107,574.036,570.101,0.0
55410.0,STARLINK-5633,PAYLOAD,2024-02-12 19:34:18,14.98328752,0.00028,70.0017,190.1204,259.2558,100.8286,5.9176e-05,6.13e-06,0.0,0 STARLINK-5633,1 55410U 23014V   24043.81549156  .00000613  00000-0  59176-4 0  9999,2 55410  70.0017 190.1204 0002800 259.2558 100.8286 14.98328752 58349,6950.197,96.107,574.008,570.116,0.0
55410.0,STARLINK-5633,PAYLOAD,2024-02-13 11:35:39,14.98332965,0.000289,70.0016,188.435,273.2477,86.8351,-4.8793e-05,-6.75e-06,0.0,0 STARLINK-5633,1 55410U 23014V   24044.48309247 -.00000675  00000-0 -48793-4 0  9991,2 55410  70.0016 188.4350 0002890 273.2477  86.8351 14.98332965 58443,6950.184,96.107,574.057,570.04,0.0
55410.0,STARLINK-5633,PAYLOAD,2024-02-13 14:47:55,14.98331937,0.0002955,70.0012,188.0985,272.3667,87.7154,-3.5009e-05,-5.11e-06,0.0,0 STARLINK-5633,1 55410U 23014V   24044.61661243 -.00000511  00000-0 -35009-4 0  9998,2 55410  70.0012 188.0985 0002955 272.3667  87.7154 14.98331937 58463,6950.187,96.107,574.106,569.998,0.0
55410.0,STARLINK-5633,PAYLOAD,2024-02-13 19:36:19,14.98337562,0.0002985,70.0009,187.5928,269.9735,90.1082,5.9971e-06,-2.1e-07,0.0,0 STARLINK-5633,1 55410U 23014V   24044.81688681 -.00000021  00000-0  59971-5 0  9995,2 55410  70.0009 187.5928 0002985 269.9735  90.1082 14.98337562 58492,6950.17,96.107,574.109,569.96,0.0
55410.0,STARLINK-5633,PAYLOAD,2024-02-14 11:37:39,14.98328596,0.000288,70.0012,185.9098,268.1372,91.9457,3.588e-05,3.35e-06,0.0,0 STARLINK-5633,1 55410U 23014V   24045.48449032  .00000335  00000-0  35880-4 0  9993,2 55410  70.0012 185.9098 0002880 268.1372  91.9457 14.98328596 58591,6950.197,96.107,574.064,570.061,0.0
55410.0,STARLINK-5633,PAYLOAD,2024-02-14 14:49:56,14.9832961,0.0002806,70.0012,185.5732,267.2374,92.8464,4.3782e-05,4.29e-06,0.0,0 STARLINK-5633,1 55410U 23014V   24045.61800960  .00000429  00000-0  43782-4 0  9993,2 55410  70.0012 185.5732 0002806 267.2374  92.8464 14.98329610 58611,6950.194,96.107,574.009,570.109,0.0
55410.0,STARLINK-5633,PAYLOAD,2024-02-14 16:26:04,14.98330376,0.0002926,70.0011,185.4049,270.7937,89.2887,5.3385e-05,5.44e-06,0.0,0 STARLINK-5633,1 55410U 23014V   24045.68476891  .00000544  00000-0  53385-4 0  9990,2 55410  70.0011 185.4049 0002926 270.7937  89.2887 14.98330376 58628,6950.192,96.107,574.09,570.023,0.0
55410.0,STARLINK-5633,PAYLOAD,2024-02-15 11:39:41,14.98317788,0.0002841,70.0015,183.3865,269.9339,90.1495,0.00012214,1.364e-05,0.0,0 STARLINK-5633,1 55410U 23014V   24046.48589543  .00001364  00000-0  12214-3 0  9994,2 55410  70.0015 183.3865 0002841 269.9339  90.1495 14.98317788 58748,6950.231,96.108,574.07,570.121,0.0
55410.0,STARLINK-5633,PAYLOAD,2024-02-15 14:51:57,14.98302861,0.0002951,70.0014,183.0498,267.6929,92.3892,0.00035827,4.181e-05,0.0,0 STARLINK-5633,1 55410U 23014V   24046.61942051  .00004181  00000-0  35827-3 0  9991,2 55410  70.0014 183.0498 0002951 267.6929  92.3892 14.98302861 58761,6950.277,96.109,574.193,570.091,0.0
55410.0,STARLINK-5633,PAYLOAD,2024-02-15 18:04:13,14.9832256,0.0002924,70.0014,182.7127,273.4077,86.6748,-5.1948e-05,-7.13e-06,0.0,0 STARLINK-5633,1 55410U 23014V   24046.75293788 -.00000713  00000-0 -51948-4 0  9994,2 55410  70.0014 182.7127 0002924 273.4077  86.6748 14.98322560 58781,6950.216,96.107,574.113,570.049,0.0
55410.0,STARLINK-5633,PAYLOAD,2024-02-16 02:04:53,14.98349449,0.0002918,70.0014,181.8701,274.6915,85.3911,-0.00034152,-4.168e-05,0.0,0 STARLINK-5633,1 55410U 23014V   24047.08672777 -.00004168  00000-0 -34152-3 0  9995,2 55410  70.0014 181.8701 0002918 274.6915  85.3911 14.98349449 58835,6950.133,96.106,574.026,569.97,0.0
55410.0,STARLINK-5633,PAYLOAD,2024-02-16 11:41:41,14.98330896,0.0002946,70.0012,180.8606,267.4285,92.6536,2.5727e-05,2.14e-06,0.0,0 STARLINK-5633,1 55410U 23014V   24047.48729044  .00000214  00000-0  25727-4 0  9994,2 55410  70.0012 180.8606 0002946 267.4285  92.6536 14.98330896 58893,6950.19,96.107,574.103,570.008,0.0
55410.0,STARLINK-5633,PAYLOAD,2024-02-16 14:53:57,14.98334136,0.0003189,70.0008,180.5247,272.7856,87.2939,5.9973e-05,6.23e-06,0.0,0 STARLINK-5633,1 55410U 23014V   24047.62080727  .00000623  00000-0  59973-4 0  9992,2 55410  70.0008 180.5247 0003189 272.7856  87.2939 14.98334136 58910,6950.18,96.107,574.262,569.829,0.0
55410.0,STARLINK-5633,PAYLOAD,2024-02-16 18:06:13,14.98337724,0.0003015,70.0011,180.1879,270.3799,89.7015,7.9053e-05,8.51e-06,0.0,0 STARLINK-5633,1 55410U 23014V   24047.75432379  .00000851  00000-0  79053-4 0  9994,2 55410  70.0011 180.1879 0003015 270.3799  89.7015 14.98337724 58939,6950.169,96.107,574.129,569.939,0.0
55410.0,STARLINK-5633,PAYLOAD,2024-02-17 11:43:43,14.983191,0.0003219,70.0011,178.3362,269.1219,90.9571,-1.6513e-05,-2.9e-06,0.0,0 STARLINK-5633,1 55410U 23014V   24048.48869967 -.00000290  00000-0 -16513-4 0  9993,2 55410  70.0011 178.3362 0003219 269.1219  90.9571 14.98319100 59046,6950.227,96.108,574.329,569.854,0.0
55410.0,STARLINK-5633,PAYLOAD,2024-02-17 14:55:59,14.98321748,0.0003252,70.0006,177.9991,268.3321,91.7465,7.1068e-06,-8e-08,0.0,0 STARLINK-5633,1 55410U 23014V   24048.62221766 -.00000008  00000-0  71068-5 0  9991,2 55410  70.0006 177.9991 0003252 268.3321  91.7465 14.98321748 59069,6950.218,96.108,574.344,569.823,0.0
55410.0,STARLINK-5633,PAYLOAD,2024-02-17 18:08:15,14.98323675,0.000314,70.001,177.6631,268.5945,91.4854,3.4157e-05,3.15e-06,0.0,0 STARLINK-5633,1 55410U 23014V   24048.75573652  .00000315  00000-0  34157-4 0  9996,2 55410  70.0010 177.6631 0003140 268.5945  91.4854 14.98323675 59084,6950.212,96.107,574.26,569.895,0.0
55410.0,STARLINK-5633,PAYLOAD,2024-02-18 02:08:55,14.98329738,0.0003241,70.0009,176.8196,272.247,87.8318,3.9572e-05,3.79e-06,0.0,0 STARLINK-5633,1 55410U 23014V   24049.08953299  .00000379  00000-0  39572-4 0  9998,2 55410  70.0009 176.8196 0003241 272.2470  87.8318 14.98329738 59132,6950.194,96.107,574.311,569.806,0.0
55410.0,STARLINK-5633,PAYLOAD,2024-02-18 14:57:59,14.9834235,0.0003253,70.0007,175.4749,269.4638,90.6148,7.9634e-05,8.58e-06,0.0,0 STARLINK-5633,1 55410U 23014V   24049.62360261  .00000858  00000-0  79634-4 0  9994,2 55410  70.0007 175.4749 0003253 269.4638  90.6148 14.98342350 59213,6950.155,96.106,574.281,569.759,0.0
55410.0,STARLINK-5633,PAYLOAD,2024-02-18 18:10:15,14.98345328,0.0003265,70.0005,175.1383,269.1778,90.9007,0.00014506,1.639e-05,0.0,0 STARLINK-5633,1 55410U 23014V   24049.75711817  .00001639  00000-0  14506-3 0  9999,2 55410  70.0005 175.1383 0003265 269.1778  90.9007 14.98345328 59234,6950.145,96.106,574.28,569.741,0.0
55410.0,STARLINK-5633,PAYLOAD,2024-02-19 02:10:56,14.98332082,0.0002485,70.0037,174.2959,278.417,81.6707,-6.1704e-05,-8.29e-06,0.0,0 STARLINK-5633,1 55410U 23014V   24050.09093230 -.00000829  00000-0 -61704-4 0  9995,2 55410  70.0037 174.2959 0002485 278.4170  81.6707 14.98332082 59282,6950.186,96.107,573.779,570.324,0.0
55410.0,STARLINK-5633,PAYLOAD,2024-02-19 11:47:45,14.98323252,0.0002964,70.0005,173.2857,266.0823,93.9997,5.8488e-06,-2.3e-07,0.0,0 STARLINK-5633,1 55410U 23014V   24050.49149632 -.00000023  00000-0  58488-5 0  9998,2 55410  70.0005 173.2857 0002964 266.0823  93.9997 14.98323252 59346,6950.214,96.107,574.139,570.019,0.0
55410.0,STARLINK-5633,PAYLOAD,2024-02-19 15:00:01,14.98321602,0.0002799,70.0011,172.9498,265.0803,95.0037,4.617e-05,4.58e-06,0.0,0 STARLINK-5633,1 55410U 23014V   24050.62501699  .00000458  00000-0  46170-4 0  9993,2 55410  70.0011 172.9498 0002799 265.0803  95.0037 14.98321602 59360,6950.219,96.108,574.029,570.138,0.0
